ONEWEB-0720             
1 55835U 23029AR  26178.05552990 -.00000028  00000+0 -10319-3 0  9999
2 55835  87.9176 303.0112 0001789 108.8916 251.2411 13.19725049160143
ONEWEB-0537             
1 56046U 23043A   26178.15019726  .00000222  00000+0  54721-3 0  9995
2 56046  87.9091 226.7931 0002292  94.6824 265.4569 13.16596758160279
ONEWEB-0538             
1 56047U 23043B   26178.14386302  .00000031  00000+0  47358-4 0  9999
2 56047  87.9090 226.7969 0002231 101.5959 258.5422 13.16596037160282
ONEWEB-0546             
1 56048U 23043C   26178.20719404  .00000143  00000+0  34169-3 0  9999
2 56048  87.9091 226.7843 0002683  88.3564 271.7874 13.16595569160287
ONEWEB-0547             
1 56049U 23043D   26178.16435569  .00000072  00000+0  14203-3 0  9990
2 56049  87.9251 241.9893 0002099 103.6243 256.5125 13.21826403159543
ONEWEB-0548             
1 56050U 23043E   26178.15573161  .00000041  00000+0  73255-4 0  9991
2 56050  87.9089 226.7905 0001813  84.6240 275.5097 13.16593923160270
ONEWEB-0549             
1 56051U 23043F   26178.15847259  .00000056  00000+0  10463-3 0  9991
2 56051  87.9248 241.9965 0002314 106.0349 254.1040 13.21826676159548
ONEWEB-0550             
1 56052U 23043G   26178.22072367  .00001445  00000+0  34667-2 0  9994
2 56052  87.9249 241.9820 0001856  96.9955 263.1390 13.21819617159556
ONEWEB-0551             
1 56053U 23043H   26178.19478799  .00000030  00000+0  44966-4 0  9994
2 56053  87.8995 257.2326 0002134 109.3995 250.7366 13.15549985157710
ONEWEB-0552             
1 56054U 23043J   26178.21564968  .00000005  00000+0 -19223-4 0  9993
2 56054  87.9246 241.9882 0001899 102.6183 257.5163 13.21825437159550
ONEWEB-0553             
1 56055U 23043K   26178.13752902  .00000133  00000+0  31318-3 0  9991
2 56055  87.9090 226.7984 0002342  88.6006 271.5394 13.16595367160287
ONEWEB-0554             
1 56056U 23043L   26178.20086730  .00000090  00000+0  20106-3 0  9994
2 56056  87.9087 226.7948 0001769  83.9350 276.1982 13.16595310160277
ONEWEB-0555             
1 56057U 23043M   26178.16285167  .00000026  00000+0  34214-4 0  9990
2 56057  87.9092 226.7908 0002560  87.7704 272.3720 13.16592864160274
ONEWEB-0557             
1 56058U 23043N   26178.17710833 -.00000026  00000+0 -10194-3 0  9997
2 56058  87.9089 226.7977 0002293  62.8419 297.2945 13.16594768160277
ONEWEB-0558             
1 56059U 23043P   26178.20892272  .00000069  00000+0  13488-3 0  9994
2 56059  87.9248 241.9845 0002310 103.5684 256.5707 13.21825049159564
ONEWEB-0559             
1 56060U 23043Q   26178.19714380  .00000055  00000+0  10283-3 0  9992
2 56060  87.9251 241.9820 0002036 104.5428 255.5932 13.21826500159578
ONEWEB-0566             
1 56061U 23043R   26178.19042198 -.00000024  00000+0 -90487-4 0  9997
2 56061  87.9248 241.9815 0002053 107.6938 252.4420 13.21827711159559
ONEWEB-0568             
1 56062U 23043S   26178.19454009  .00000251  00000+0  62388-3 0  9994
2 56062  87.9088 226.7839 0002231  92.1754 267.9633 13.16592405160294
ONEWEB-0574             
1 56063U 23043T   26178.18370554  .00000065  00000+0  12694-3 0  9994
2 56063  87.9259 241.9868 0001997  92.7657 267.3705 13.21825715159596
ONEWEB-0575             
1 56064U 23043U   26178.18820253  .00000092  00000+0  20827-3 0  9998
2 56064  87.9088 226.7816 0002088  83.9107 276.2262 13.16594417160286
ONEWEB-0576             
1 56065U 23043V   26178.16919623  .00000008  00000+0 -13717-4 0  9996
2 56065  87.9092 226.7934 0002087  89.7162 270.4208 13.16594560160271
ONEWEB-0577             
1 56066U 23043W   26178.17553927  .00000008  00000+0 -11448-4 0  9998
2 56066  87.9090 226.7897 0001890  73.8184 286.3155 13.16594184160300
ONEWEB-0578             
1 56067U 23043X   26178.17025182  .00000016  00000+0  78096-5 0  9997
2 56067  87.9249 241.9867 0002312  92.3315 267.8083 13.21825616159557
ONEWEB-0579             
1 56068U 23043Y   26178.16183734  .00000083  00000+0  17053-3 0  9993
2 56068  87.9259 241.9857 0001863 103.8241 256.3100 13.21827509159561
ONEWEB-0581             
1 56069U 23043Z   26178.18186458  .00000019  00000+0  16179-4 0  9990
2 56069  87.9088 226.7996 0001814  80.8331 279.3005 13.16593097160272
ONEWEB-0609             
1 56070U 23043AA  26178.22094118  .00007061  00000+0  18716-1 0  9998
2 56070  87.8997 257.2127 0002267 108.4639 251.6737 13.15514787157750
ONEWEB-0613             
1 56071U 23043AB  26178.21856194  .00000095  00000+0  21767-3 0  9990
2 56071  87.8998 257.2254 0001951 107.8152 252.3191 13.15547373157754
ONEWEB-0630             
1 56072U 23043AC  26178.21382068  .00000134  00000+0  32104-3 0  9996
2 56072  87.9004 257.1985 0001910 106.2800 253.8540 13.15548062157741
ONEWEB-0632             
1 56073U 23043AD  26178.20906593  .00000154  00000+0  37390-3 0  9995
2 56073  87.8999 257.2169 0001892  96.9779 263.1567 13.15549487157743
ONEWEB-0633             
1 56074U 23043AE  26178.20272808  .00000140  00000+0  33873-3 0  9998
2 56074  87.9006 257.1945 0002072 112.3385 247.7965 13.15547993157720
ONEWEB-0634             
1 56075U 23043AF  26178.18846655  .00000023  00000+0  27535-4 0  9992
2 56075  87.8997 257.2369 0002375  99.1082 261.0317 13.15549424157712
