OBJECT_NAME,OBJECT_ID,EPOCH,MEAN_MOTION,ECCENTRICITY,INCLINATION,RA_OF_ASC_NODE,ARG_OF_PERICENTER,MEAN_ANOMALY,EPHEMERIS_TYPE,CLASSIFICATION_TYPE,NORAD_CAT_ID,ELEMENT_SET_NO,REV_AT_EPOCH,BSTAR,MEAN_MOTION_DOT,MEAN_MOTION_DDOT
ONEWEB-0720,2023-029AR,2026-06-27T01:19:57.783360,13.19725049,.0001789,87.9176,303.0112,108.8916,251.2411,0,U,55835,999,16014,-.10319E-3,-.28E-6,0
ONEWEB-0537,2023-043A,2026-06-27T03:36:17.043264,13.16596758,.0002292,87.9091,226.7931,94.6824,265.4569,0,U,56046,999,16027,.54721E-3,.222E-5,0
ONEWEB-0538,2023-043B,2026-06-27T03:27:09.764928,13.16596037,.0002231,87.9090,226.7969,101.5959,258.5422,0,U,56047,999,16028,.47358E-4,.31E-6,0
ONEWEB-0546,2023-043C,2026-06-27T04:58:21.565056,13.16595569,.0002683,87.9091,226.7843,88.3564,271.7874,0,U,56048,999,16028,.34169E-3,.143E-5,0
ONEWEB-0547,2023-043D,2026-06-27T03:56:40.331616,13.21826403,.0002099,87.9251,241.9893,103.6243,256.5125,0,U,56049,999,15954,.14203E-3,.72E-6,0
ONEWEB-0548,2023-043E,2026-06-27T03:44:15.211104,13.16593923,.0001813,87.9089,226.7905,84.6240,275.5097,0,U,56050,999,16027,.73255E-4,.41E-6,0
ONEWEB-0549,2023-043F,2026-06-27T03:48:12.031776,13.21826676,.0002314,87.9248,241.9965,106.0349,254.1040,0,U,56051,999,15954,.10463E-3,.56E-6,0
ONEWEB-0550,2023-043G,2026-06-27T05:17:50.525088,13.21819617,.0001856,87.9249,241.9820,96.9955,263.1390,0,U,56052,999,15955,.34667E-2,.1445E-4,0
ONEWEB-0551,2023-043H,2026-06-27T04:40:29.682336,13.15549985,.0002134,87.8995,257.2326,109.3995,250.7366,0,U,56053,999,15771,.44966E-4,.3E-6,0
ONEWEB-0552,2023-043J,2026-06-27T05:10:32.132352,13.21825437,.0001899,87.9246,241.9882,102.6183,257.5163,0,U,56054,999,15955,-.19223E-4,.5E-7,0
ONEWEB-0553,2023-043K,2026-06-27T03:18:02.507328,13.16595367,.0002342,87.9090,226.7984,88.6006,271.5394,0,U,56055,999,16028,.31318E-3,.133E-5,0
ONEWEB-0554,2023-043L,2026-06-27T04:49:14.934720,13.16595310,.0001769,87.9087,226.7948,83.9350,276.1982,0,U,56056,999,16027,.20106E-3,.9E-6,0
ONEWEB-0555,2023-043M,2026-06-27T03:54:30.384288,13.16592864,.000256,87.9092,226.7908,87.7704,272.3720,0,U,56057,999,16027,.34214E-4,.26E-6,0
ONEWEB-0557,2023-043N,2026-06-27T04:15:02.159712,13.16594768,.0002293,87.9089,226.7977,62.8419,297.2945,0,U,56058,999,16027,-.10194E-3,-.26E-6,0
ONEWEB-0558,2023-043P,2026-06-27T05:00:50.923008,13.21825049,.000231,87.9248,241.9845,103.5684,256.5707,0,U,56059,999,15956,.13488E-3,.69E-6,0
ONEWEB-0559,2023-043Q,2026-06-27T04:43:53.224320,13.21826500,.0002036,87.9251,241.9820,104.5428,255.5932,0,U,56060,999,15957,.10283E-3,.55E-6,0
ONEWEB-0566,2023-043R,2026-06-27T04:34:12.459072,13.21827711,.0002053,87.9248,241.9815,107.6938,252.4420,0,U,56061,999,15955,-.90487E-4,-.24E-6,0
ONEWEB-0568,2023-043S,2026-06-27T04:40:08.263776,13.16592405,.0002231,87.9088,226.7839,92.1754,267.9633,0,U,56062,999,16029,.62388E-3,.251E-5,0
ONEWEB-0574,2023-043T,2026-06-27T04:24:32.158656,13.21825715,.0001997,87.9259,241.9868,92.7657,267.3705,0,U,56063,999,15959,.12694E-3,.65E-6,0
ONEWEB-0575,2023-043U,2026-06-27T04:31:00.698592,13.16594417,.0002088,87.9088,226.7816,83.9107,276.2262,0,U,56064,999,16028,.20827E-3,.92E-6,0
ONEWEB-0576,2023-043V,2026-06-27T04:03:38.554272,13.16594560,.0002087,87.9092,226.7934,89.7162,270.4208,0,U,56065,999,16027,-.13717E-4,.8E-7,0
ONEWEB-0577,2023-043W,2026-06-27T04:12:46.592928,13.16594184,.000189,87.9090,226.7897,73.8184,286.3155,0,U,56066,999,16030,-.11448E-4,.8E-7,0
ONEWEB-0578,2023-043X,2026-06-27T04:05:09.757248,13.21825616,.0002312,87.9249,241.9867,92.3315,267.8083,0,U,56067,999,15955,.78096E-5,.16E-6,0
ONEWEB-0579,2023-043Y,2026-06-27T03:53:02.746176,13.21827509,.0001863,87.9259,241.9857,103.8241,256.3100,0,U,56068,999,15956,.17053E-3,.83E-6,0
ONEWEB-0581,2023-043Z,2026-06-27T04:21:53.099712,13.16593097,.0001814,87.9088,226.7996,80.8331,279.3005,0,U,56069,999,16027,.16179E-4,.19E-6,0
ONEWEB-0609,2023-043AA,2026-06-27T05:18:09.317952,13.15514787,.0002267,87.8997,257.2127,108.4639,251.6737,0,U,56070,999,15775,.18716E-1,.7061E-4,0
ONEWEB-0613,2023-043AB,2026-06-27T05:14:43.751616,13.15547373,.0001951,87.8998,257.2254,107.8152,252.3191,0,U,56071,999,15775,.21767E-3,.95E-6,0
ONEWEB-0630,2023-043AC,2026-06-27T05:07:54.106752,13.15548062,.000191,87.9004,257.1985,106.2800,253.8540,0,U,56072,999,15774,.32104E-3,.134E-5,0
ONEWEB-0632,2023-043AD,2026-06-27T05:01:03.296352,13.15549487,.0001892,87.8999,257.2169,96.9779,263.1567,0,U,56073,999,15774,.3739E-3,.154E-5,0
ONEWEB-0633,2023-043AE,2026-06-27T04:51:55.706112,13.15547993,.0002072,87.9006,257.1945,112.3385,247.7965,0,U,56074,999,15772,.33873E-3,.14E-5,0
ONEWEB-0634,2023-043AF,2026-06-27T04:31:23.509920,13.15549424,.0002375,87.8997,257.2369,99.1082,261.0317,0,U,56075,999,15771,.27535E-4,.23E-6,0
